NORAD_CAT_ID,OBJECT_NAME,OBJECT_TYPE,EPOCH,MEAN_MOTION,ECCENTRICITY,INCLINATION,RA_OF_ASC_NODE,ARG_OF_PERICENTER,MEAN_ANOMALY,BSTAR,MEAN_MOTION_DOT,MEAN_MOTION_DDOT,TLE_LINE0,TLE_LINE1,TLE_LINE2,SEMIMAJOR_AXIS,PERIOD,APOGEE,PERIGEE,DECAYED
52615.0,STARLINK-4011,PAYLOAD,2023-05-08 17:55:49,15.08853556,7.44e-05,53.2155,254.6476,95.7735,264.3342,0.0004042,6.153e-05,0.0,0 STARLINK-4011,1 52615U 22052T   23128.74710386  .00006153  00000-0  40420-3 0  9990,2 52615  53.2155 254.6476 0000744  95.7735 264.3342 15.08853556 54769,6917.839,95.437,540.219,539.189,0.0
52615.0,STARLINK-4011,PAYLOAD,2023-05-09 13:00:27,15.08844475,6.65e-05,53.2155,251.08,68.5437,291.5626,0.00024894,3.677e-05,0.0,0 STARLINK-4011,1 52615U 22052T   23129.54198914  .00003677  00000-0  24894-3 0  9991,2 52615  53.2155 251.0800 0000665  68.5437 291.5626 15.08844475 54509,6917.867,95.437,540.192,539.272,0.0
52615.0,STARLINK-4011,PAYLOAD,2023-05-10 12:51:14,15.08844102,7.43e-05,53.2159,246.6166,84.5224,275.5853,0.00046674,7.149e-05,0.0,0 STARLINK-4011,1 52615U 22052T   23130.53558951  .00007149  00000-0  46674-3 0  9991,2 52615  53.2159 246.6166 0000743  84.5224 275.5853 15.08844102 54654,6917.868,95.437,540.247,539.219,0.0
52615.0,STARLINK-4011,PAYLOAD,2023-05-10 17:37:24,15.08854747,7.08e-05,53.2158,245.7263,72.4134,287.6935,0.0013818,0.00021781,0.0,0 STARLINK-4011,1 52615U 22052T   23130.73430973  .00021781  00000-0  13818-2 0  9997,2 52615  53.2158 245.7263 0000708  72.4134 287.6935 15.08854747 55065,6917.835,95.437,540.19,539.211,0.0
52615.0,STARLINK-4011,PAYLOAD,2023-05-11 11:06:39,15.08844821,8.45e-05,53.2162,242.4562,62.8358,297.272,0.00097034,0.00015191,0.0,0 STARLINK-4011,1 52615U 22052T   23131.46295168  .00015191  00000-0  97034-3 0  9994,2 52615  53.2162 242.4562 0000845  62.8358 297.2720 15.08844821 55172,6917.866,95.437,540.315,539.146,0.0
52615.0,STARLINK-4011,PAYLOAD,2023-05-11 12:42:02,15.08847134,8.73e-05,53.2162,242.1589,61.3081,298.7999,0.0010511,0.00016483,0.0,0 STARLINK-4011,1 52615U 22052T   23131.52919160  .00016483  00000-0  10511-2 0  9995,2 52615  53.2162 242.1589 0000873  61.3081 298.7999 15.08847134 54809,6917.859,95.437,540.328,539.12,0.0
52615.0,STARLINK-4011,PAYLOAD,2023-05-11 23:49:43,15.0885047,0.0001361,53.2162,240.0704,36.4702,323.6382,0.00054772,8.442e-05,0.0,0 STARLINK-4011,1 52615U 22052T   23131.99286964  .00008442  00000-0  54772-3 0  9999,2 52615  53.2162 240.0704 0001361  36.4702 323.6382 15.08850470 55252,6917.848,95.437,540.655,538.772,0.0
52615.0,STARLINK-4011,PAYLOAD,2023-05-12 23:40:30,15.08847467,9.31e-05,53.2164,235.6183,85.2538,274.8561,0.00027816,4.143e-05,0.0,0 STARLINK-4011,1 52615U 22052T   23132.98646866  .00004143  00000-0  27816-3 0  9993,2 52615  53.2164 235.6183 0000931  85.2538 274.8561 15.08847467 55401,6917.858,95.437,540.367,539.079,0.0
52615.0,STARLINK-4011,PAYLOAD,2023-05-13 12:23:35,15.08846684,0.000107,53.2167,233.2402,100.6174,259.4939,0.00017111,2.437e-05,0.0,0 STARLINK-4011,1 52615U 22052T   23133.51638701  .00002437  00000-0  17111-3 0  9993,2 52615  53.2167 233.2402 0001070 100.6174 259.4939 15.08846684 55100,6917.86,95.437,540.465,538.985,0.0
52615.0,STARLINK-4011,PAYLOAD,2023-05-13 15:34:21,15.08851064,0.0001089,53.217,232.6462,103.1961,256.9153,0.00024124,3.555e-05,0.0,0 STARLINK-4011,1 52615U 22052T   23133.64886477  .00003555  00000-0  24124-3 0  9996,2 52615  53.2170 232.6462 0001089 103.1961 256.9153 15.08851064 55125,6917.847,95.437,540.465,538.958,0.0
52615.0,STARLINK-4011,PAYLOAD,2023-05-14 12:14:23,15.08834726,0.000114,53.2168,228.7798,96.3225,263.7897,-4.5887e-05,-1.018e-05,0.0,0 STARLINK-4011,1 52615U 22052T   23134.50999286 -.00001018  00000-0 -45887-4 0  9999,2 52615  53.2168 228.7798 0001140  96.3225 263.7897 15.08834726 55637,6917.897,95.438,540.55,538.973,0.0
52615.0,STARLINK-4011,PAYLOAD,2023-05-14 13:49:46,15.0883775,0.0001053,53.2167,228.4821,97.3552,262.7559,2.2041e-05,6.3e-07,0.0,0 STARLINK-4011,1 52615U 22052T   23134.57623188  .00000063  00000-0  22041-4 0  9995,2 52615  53.2167 228.4821 0001053  97.3552 262.7559 15.08837750 55260,6917.887,95.438,540.481,539.024,0.0
52615.0,STARLINK-4011,PAYLOAD,2023-05-14 15:25:09,15.08839011,0.0001081,53.2166,228.1852,94.4939,265.6176,5.5927e-05,6.02e-06,0.0,0 STARLINK-4011,1 52615U 22052T   23134.64247184  .00000602  00000-0  55927-4 0  9999,2 52615  53.2166 228.1852 0001081  94.4939 265.6176 15.08839011 55278,6917.883,95.438,540.496,539.001,0.0
52615.0,STARLINK-4011,PAYLOAD,2023-05-15 12:05:10,15.08841304,9.15e-05,53.2154,224.3175,88.9867,271.123,0.00014387,2.003e-05,0.0,0 STARLINK-4011,1 52615U 22052T   23135.50359377  .00002003  00000-0  14387-3 0  9994,2 52615  53.2154 224.3175 0000915  88.9867 271.1230 15.08841304 55400,6917.876,95.437,540.374,539.108,0.0
52615.0,STARLINK-4011,PAYLOAD,2023-05-15 15:15:56,15.08844801,0.0001,53.2159,223.7231,86.5268,273.5839,0.00033822,5.1e-05,0.0,0 STARLINK-4011,1 52615U 22052T   23135.63607373  .00005100  00000-0  33822-3 0  9996,2 52615  53.2159 223.7231 0001000  86.5268 273.5839 15.08844801 55806,6917.866,95.437,540.423,539.039,0.0
52615.0,STARLINK-4011,PAYLOAD,2023-05-16 10:20:34,15.08838582,0.0001001,53.2156,220.152,92.0384,268.0723,0.00013408,1.847e-05,0.0,0 STARLINK-4011,1 52615U 22052T   23136.43095711  .00001847  00000-0  13408-3 0  9994,2 52615  53.2156 220.1520 0001001  92.0384 268.0723 15.08838582 55920,6917.885,95.438,540.442,539.057,0.0
52615.0,STARLINK-4011,PAYLOAD,2023-05-16 11:55:57,15.08838958,0.0001005,53.216,219.8557,90.6856,269.4252,0.00012906,1.767e-05,0.0,0 STARLINK-4011,1 52615U 22052T   23136.49719736  .00001767  00000-0  12906-3 0  9993,2 52615  53.2160 219.8557 0001005  90.6856 269.4252 15.08838958 55550,6917.884,95.438,540.444,539.053,0.0
52615.0,STARLINK-4011,PAYLOAD,2023-05-17 11:46:44,15.08845492,0.0001138,53.2169,215.395,98.9102,261.2019,0.0001358,1.874e-05,0.0,0 STARLINK-4011,1 52615U 22052T   23137.49079413  .00001874  00000-0  13580-3 0  9993,2 52615  53.2169 215.3950 0001138  98.9102 261.2019 15.08845492 56080,6917.864,95.437,540.516,538.941,0.0
52615.0,STARLINK-4011,PAYLOAD,2023-05-18 11:37:32,15.08833995,0.0001017,53.2167,210.936,93.6039,266.507,1.5479e-05,-4.1e-07,0.0,0 STARLINK-4011,1 52615U 22052T   23138.48440273 -.00000041  00000-0  15479-4 0  9995,2 52615  53.2167 210.9360 0001017  93.6039 266.5070 15.08833995 56238,6917.899,95.438,540.467,539.06,0.0
52615.0,STARLINK-4011,PAYLOAD,2023-05-19 09:52:56,15.0883985,0.0001008,53.2165,206.7723,96.5873,263.5233,4.771e-05,4.72e-06,0.0,0 STARLINK-4011,1 52615U 22052T   23139.41175928  .00000472  00000-0  47710-4 0  9991,2 52615  53.2165 206.7723 0001008  96.5873 263.5233 15.08839850 56379,6917.881,95.438,540.443,539.049,0.0
52615.0,STARLINK-4011,PAYLOAD,2023-05-19 21:00:37,15.08840494,0.000101,53.2167,204.6905,106.4546,253.6557,0.00010281,1.349e-05,0.0,0 STARLINK-4011,1 52615U 22052T   23139.87543684  .00001349  00000-0  10281-3 0  9995,2 52615  53.2167 204.6905 0001010 106.4546 253.6557 15.08840494 56062,6917.879,95.438,540.443,539.045,0.0
52615.0,STARLINK-4011,PAYLOAD,2023-05-20 14:29:51,15.08847994,0.0001149,53.2171,201.4198,109.608,250.5036,0.00019666,2.844e-05,0.0,0 STARLINK-4011,1 52615U 22052T   23140.60407166  .00002844  00000-0  19666-3 0  9999,2 52615  53.2171 201.4198 0001149 109.6080 250.5036 15.08847994 56551,6917.856,95.437,540.516,538.926,0.0
52615.0,STARLINK-4011,PAYLOAD,2023-05-20 20:51:24,15.08845121,0.0001173,53.2173,200.2288,92.6997,267.4129,0.00013328,1.834e-05,0.0,0 STARLINK-4011,1 52615U 22052T   23140.86903509  .00001834  00000-0  13328-3 0  9996,2 52615  53.2173 200.2288 0001173  92.6997 267.4129 15.08845121 56218,6917.865,95.437,540.541,538.918,0.0
52615.0,STARLINK-4011,PAYLOAD,2023-05-21 14:20:38,15.08847571,0.0001196,53.2162,196.9574,87.0897,273.0232,7.0949e-05,8.42e-06,0.0,0 STARLINK-4011,1 52615U 22052T   23141.59767121  .00000842  00000-0  70949-4 0  9996,2 52615  53.2162 196.9574 0001196  87.0897 273.0232 15.08847571 56328,6917.857,95.437,540.55,538.895,0.0
52615.0,STARLINK-4011,PAYLOAD,2023-05-21 20:42:11,15.08842513,0.0001167,53.2158,195.7669,83.0699,277.0426,2.4099e-05,9.6e-07,0.0,0 STARLINK-4011,1 52615U 22052T   23141.86263328  .00000096  00000-0  24099-4 0  9992,2 52615  53.2158 195.7669 0001167  83.0699 277.0426 15.08842513 56363,6917.873,95.437,540.545,538.93,0.0
52615.0,STARLINK-4011,PAYLOAD,2023-05-22 03:03:44,15.08838651,0.0001582,53.2171,194.5811,91.6479,268.4694,2.6952e-05,1.41e-06,0.0,0 STARLINK-4011,1 52615U 22052T   23142.12760103  .00000141  00000-0  26952-4 0  9996,2 52615  53.2171 194.5811 0001582  91.6479 268.4694 15.08838651 56781,6917.885,95.438,540.844,538.655,0.0
52615.0,STARLINK-4011,PAYLOAD,2023-05-22 09:25:17,15.0883325,0.0001216,53.2165,193.3934,85.932,274.1811,-0.00019693,-3.42e-05,0.0,0 STARLINK-4011,1 52615U 22052T   23142.39256010 -.00003420  00000-0 -19693-3 0  9990,2 52615  53.2165 193.3934 0001216  85.9320 274.1811 15.08833250 56440,6917.901,95.438,540.607,538.925,0.0
52615.0,STARLINK-4011,PAYLOAD,2023-05-22 20:32:59,15.08840717,0.0001204,53.2174,191.3117,76.9031,283.2095,-7.6608e-05,-1.507e-05,0.0,0 STARLINK-4011,1 52615U 22052T   23142.85624321 -.00001507  00000-0 -76608-4 0  9999,2 52615  53.2174 191.3117 0001204  76.9031 283.2095 15.08840717 56516,6917.878,95.438,540.576,538.91,0.0
52615.0,STARLINK-4011,PAYLOAD,2023-05-23 09:16:04,15.08838892,0.0001111,53.2173,188.9327,82.3288,277.783,6.1808e-06,-1.89e-06,0.0,0 STARLINK-4011,1 52615U 22052T   23143.38616427 -.00000189  00000-0  61808-5 0  9997,2 52615  53.2173 188.9327 0001111  82.3288 277.7830 15.08838892 56978,6917.884,95.438,540.517,538.98,0.0
52615.0,STARLINK-4011,PAYLOAD,2023-05-23 10:51:27,15.08838956,0.0001101,53.2172,188.6353,82.1261,277.9856,6.5552e-06,-1.83e-06,0.0,0 STARLINK-4011,1 52615U 22052T   23143.45240419 -.00000183  00000-0  65552-5 0  9993,2 52615  53.2172 188.6353 0001101  82.1261 277.9856 15.08838956 56602,6917.884,95.438,540.51,538.987,0.0
